[
    {
        "Altitude(m)": 711390.4151888781,
        "Argument of Periapsis(deg)": 0.005695060593313534,
        "Eccentricity": 0.0,
        "Inclination(deg)": 45.0,
        "Latitude(deg)": -29.195020955097608,
        "Longitude(deg)": 150.86469757623962,
        "Mean Anomaly(deg)": -43.32429167625956,
        "RAAN(deg)": 284.9946240292709,
        "Satellite Name": "Constellation 1 1273",
        "Satellite Number": 1273,
        "Semi-Major Axis(m)": 7083131.272910544,
        "Time(s)": 95
    },
    {
        "Altitude(m)": 711376.6502402797,
        "Argument of Periapsis(deg)": 0.00575500859955894,
        "Eccentricity": 0.0,
        "Inclination(deg)": 45.0,
        "Latitude(deg)": -29.159225855780274,
        "Longitude(deg)": 150.91662271991336,
        "Mean Anomaly(deg)": -43.26359053600967,
        "RAAN(deg)": 284.99456744010536,
        "Satellite Name": "Constellation 1 1273",
        "Satellite Number": 1273,
        "Semi-Major Axis(m)": 7083131.272910544,
        "Time(s)": 96
    },
    {
        "Altitude(m)": 711362.8823582728,
        "Argument of Periapsis(deg)": 0.005814956605804345,
        "Eccentricity": 0.0,
        "Inclination(deg)": 45.0,
        "Latitude(deg)": -29.123407071501568,
        "Longitude(deg)": 150.96850931756723,
        "Mean Anomaly(deg)": -43.20288939575973,
        "RAAN(deg)": 284.9945108509397,
        "Satellite Name": "Constellation 1 1273",
        "Satellite Number": 1273,
        "Semi-Major Axis(m)": 7083131.272910544,
        "Time(s)": 97
    },
    {
        "Altitude(m)": 711349.1115909169,
        "Argument of Periapsis(deg)": 0.00587490461204975,
        "Eccentricity": 0.0,
        "Inclination(deg)": 45.0,
        "Latitude(deg)": -29.08756465236135,
        "Longitude(deg)": 151.02035725945194,
        "Mean Anomaly(deg)": -43.1421882555098,
        "RAAN(deg)": 284.9944542617742,
        "Satellite Name": "Constellation 1 1273",
        "Satellite Number": 1273,
        "Semi-Major Axis(m)": 7083131.272910544,
        "Time(s)": 98
    },
    {
        "Altitude(m)": 711335.33798628,
        "Argument of Periapsis(deg)": 0.005934852618295156,
        "Eccentricity": 0.0,
        "Inclination(deg)": 45.0,
        "Latitude(deg)": -29.05169864838924,
        "Longitude(deg)": 151.072166603958,
        "Mean Anomaly(deg)": -43.08148711526001,
        "RAAN(deg)": 284.9943976726086,
        "Satellite Name": "Constellation 1 1273",
        "Satellite Number": 1273,
        "Semi-Major Axis(m)": 7083131.272910544,
        "Time(s)": 99
    },
    {
        "Altitude(m)": 711321.5615924121,
        "Argument of Periapsis(deg)": 0.005994800624540561,
        "Eccentricity": 0.0,
        "Inclination(deg)": 45.0,
        "Latitude(deg)": -29.015809109543888,
        "Longitude(deg)": 151.12393740951836,
        "Mean Anomaly(deg)": -43.02078597501002,
        "RAAN(deg)": 284.99434108344303,
        "Satellite Name": "Constellation 1 1273",
        "Satellite Number": 1273,
        "Semi-Major Axis(m)": 7083131.272910544,
        "Time(s)": 100
    },
    {
        "Altitude(m)": 711307.782457381,
        "Argument of Periapsis(deg)": 0.006054748630785968,
        "Eccentricity": 0.0,
        "Inclination(deg)": 45.0,
        "Latitude(deg)": -28.97989608571372,
        "Longitude(deg)": 151.17566973460694,
        "Mean Anomaly(deg)": -42.96008483476009,
        "RAAN(deg)": 284.99428449427745,
        "Satellite Name": "Constellation 1 1273",
        "Satellite Number": 1273,
        "Semi-Major Axis(m)": 7083131.272910544,
        "Time(s)": 101
    },
    {
        "Altitude(m)": 711294.0006292434,
        "Argument of Periapsis(deg)": 0.006114696637031373,
        "Eccentricity": 0.0,
        "Inclination(deg)": 45.0,
        "Latitude(deg)": -28.943959626716644,
        "Longitude(deg)": 151.2273636377386,
        "Mean Anomaly(deg)": -42.899383694510256,
        "RAAN(deg)": 284.99422790511187,
        "Satellite Name": "Constellation 1 1273",
        "Satellite Number": 1273,
        "Semi-Major Axis(m)": 7083131.272910544,
        "Time(s)": 102
    },
    {
        "Altitude(m)": 711280.2161560624,
        "Argument of Periapsis(deg)": 0.006174644643276778,
        "Eccentricity": 0.0,
        "Inclination(deg)": 45.0,
        "Latitude(deg)": -28.907999782299925,
        "Longitude(deg)": 151.27901917746885,
        "Mean Anomaly(deg)": -42.838682554260366,
        "RAAN(deg)": 284.99417131594635,
        "Satellite Name": "Constellation 1 1273",
        "Satellite Number": 1273,
        "Semi-Major Axis(m)": 7083131.272910544,
        "Time(s)": 103
    },
    {
        "Altitude(m)": 711266.4290858984,
        "Argument of Periapsis(deg)": 0.006234592649522184,
        "Eccentricity": 0.0,
        "Inclination(deg)": 45.0,
        "Latitude(deg)": -28.87201660214022,
        "Longitude(deg)": 151.33063624429593,
        "Mean Anomaly(deg)": -42.77798141401038,
        "RAAN(deg)": 284.99411472678077,
        "Satellite Name": "Constellation 1 1273",
        "Satellite Number": 1273,
        "Semi-Major Axis(m)": 7083131.272910544,
        "Time(s)": 104
    },
    {
        "Altitude(m)": 711252.6394668039,
        "Argument of Periapsis(deg)": 0.00629454065576759,
        "Eccentricity": 0.0,
        "Inclination(deg)": 45.0,
        "Latitude(deg)": -28.83601013584481,
        "Longitude(deg)": 151.38221523304773,
        "Mean Anomaly(deg)": -42.717280273760544,
        "RAAN(deg)": 284.9940581376152,
        "Satellite Name": "Constellation 1 1273",
        "Satellite Number": 1273,
        "Semi-Major Axis(m)": 7083131.272910544,
        "Time(s)": 105
    },
    {
        "Altitude(m)": 711238.8473468466,
        "Argument of Periapsis(deg)": 0.006354488662012995,
        "Eccentricity": 0.0,
        "Inclination(deg)": 45.0,
        "Latitude(deg)": -28.79998043294972,
        "Longitude(deg)": 151.43375603430036,
        "Mean Anomaly(deg)": -42.656579133510704,
        "RAAN(deg)": 284.9940015484496,
        "Satellite Name": "Constellation 1 1273",
        "Satellite Number": 1273,
        "Semi-Major Axis(m)": 7083131.272910544,
        "Time(s)": 106
    },
    {
        "Altitude(m)": 711225.0527740724,
        "Argument of Periapsis(deg)": 0.006414436668258401,
        "Eccentricity": 0.0,
        "Inclination(deg)": 45.0,
        "Latitude(deg)": -28.763927542920992,
        "Longitude(deg)": 151.48525870676485,
        "Mean Anomaly(deg)": -42.595877993260714,
        "RAAN(deg)": 284.993944959284,
        "Satellite Name": "Constellation 1 1273",
        "Satellite Number": 1273,
        "Semi-Major Axis(m)": 7083131.272910544,
        "Time(s)": 107
    },
    {
        "Altitude(m)": 711211.2557965409,
        "Argument of Periapsis(deg)": 0.0064743846745038075,
        "Eccentricity": 0.0,
        "Inclination(deg)": 45.0,
        "Latitude(deg)": -28.72785151515464,
        "Longitude(deg)": 151.5367233091895,
        "Mean Anomaly(deg)": -42.53517685301078,
        "RAAN(deg)": 284.9938883701185,
        "Satellite Name": "Constellation 1 1273",
        "Satellite Number": 1273,
        "Semi-Major Axis(m)": 7083131.272910544,
        "Time(s)": 108
    },
    {
        "Altitude(m)": 711197.4564623068,
        "Argument of Periapsis(deg)": 0.0065343326807492125,
        "Eccentricity": 0.0,
        "Inclination(deg)": 45.0,
        "Latitude(deg)": -28.69175239897645,
        "Longitude(deg)": 151.58814990035967,
        "Mean Anomaly(deg)": -42.47447571276095,
        "RAAN(deg)": 284.9938317809529,
        "Satellite Name": "Constellation 1 1273",
        "Satellite Number": 1273,
        "Semi-Major Axis(m)": 7083131.272910544,
        "Time(s)": 109
    },
    {
        "Altitude(m)": 711183.6548194161,
        "Argument of Periapsis(deg)": 0.0065942806869946176,
        "Eccentricity": 0.0,
        "Inclination(deg)": 45.0,
        "Latitude(deg)": -28.655630243642143,
        "Longitude(deg)": 151.63953853909712,
        "Mean Anomaly(deg)": -42.41377457251101,
        "RAAN(deg)": 284.9937751917873,
        "Satellite Name": "Constellation 1 1273",
        "Satellite Number": 1273,
        "Semi-Major Axis(m)": 7083131.272910544,
        "Time(s)": 110
    },
    {
        "Altitude(m)": 711169.8509159208,
        "Argument of Periapsis(deg)": 0.006654228693240024,
        "Eccentricity": 0.0,
        "Inclination(deg)": 45.0,
        "Latitude(deg)": -28.61948509833721,
        "Longitude(deg)": 151.6908891161626,
        "Mean Anomaly(deg)": -42.35307343226117,
        "RAAN(deg)": 284.99371860262175,
        "Satellite Name": "Constellation 1 1273",
        "Satellite Number": 1273,
        "Semi-Major Axis(m)": 7083131.272910544,
        "Time(s)": 111
    },
    {
        "Altitude(m)": 711156.0447998708,
        "Argument of Periapsis(deg)": 0.006714176699485429,
        "Eccentricity": 0.0,
        "Inclination(deg)": 45.0,
        "Latitude(deg)": -28.583317012177876,
        "Longitude(deg)": 151.74220202664287,
        "Mean Anomaly(deg)": -42.29237229201124,
        "RAAN(deg)": 284.9936620134562,
        "Satellite Name": "Constellation 1 1273",
        "Satellite Number": 1273,
        "Semi-Major Axis(m)": 7083131.272910544,
        "Time(s)": 112
    },
    {
        "Altitude(m)": 711142.2365193065,
        "Argument of Periapsis(deg)": 0.006774124705730835,
        "Eccentricity": 0.0,
        "Inclination(deg)": 45.0,
        "Latitude(deg)": -28.547126034209846,
        "Longitude(deg)": 151.79347716136846,
        "Mean Anomaly(deg)": -42.2316711517614,
        "RAAN(deg)": 284.99360542429065,
        "Satellite Name": "Constellation 1 1273",
        "Satellite Number": 1273,
        "Semi-Major Axis(m)": 7083131.272910544,
        "Time(s)": 113
    }
]